NORAD_CAT_ID,OBJECT_NAME,OBJECT_TYPE,EPOCH,MEAN_MOTION,ECCENTRICITY,INCLINATION,RA_OF_ASC_NODE,ARG_OF_PERICENTER,MEAN_ANOMALY,BSTAR,MEAN_MOTION_DOT,MEAN_MOTION_DDOT,TLE_LINE0,TLE_LINE1,TLE_LINE2,SEMIMAJOR_AXIS,PERIOD,APOGEE,PERIGEE,DECAYED
56809.0,STARLINK-6040,PAYLOAD,2023-06-06 16:00:03,15.91285846,0.0026984,70.0033,35.8038,161.9427,106.4009,-0.0031806,-0.0105169,0.00032936,0 STARLINK-6040,1 56809U 23078AU  23157.66670139 -.01051690  32936-3 -31806-2 0  9994,2 56809  70.0033  35.8038 0026984 161.9427 106.4009 15.91285846  1302,6676.821,90.493,316.702,280.669,0.0
56809.0,STARLINK-6040,PAYLOAD,2023-06-06 22:00:00,15.90741595,0.0024339,70.0032,35.0788,162.2717,97.4256,-0.0030235,-0.00966528,0.00028022,0 STARLINK-6040,1 56809U 23078AU  23157.91667824 -.00966528  28022-3 -30235-2 0  9999,2 56809  70.0032  35.0788 0024339 162.2717  97.4256 15.90741595  1303,6678.343,90.524,316.463,283.954,0.0
56809.0,STARLINK-6040,PAYLOAD,2023-06-07 07:28:45,15.90201202,0.0021498,70.0029,33.9347,156.347,203.873,-0.00093146,-0.00289655,3.1046e-05,0 STARLINK-6040,1 56809U 23078AU  23158.31163526 -.00289655  31046-4 -93146-3 0  9995,2 56809  70.0029  33.9347 0021498 156.3470 203.8730 15.90201202  1148,6679.856,90.555,316.082,287.361,0.0
56809.0,STARLINK-6040,PAYLOAD,2023-06-07 12:00:00,15.8960597,0.0019174,70.0025,33.3889,164.8253,193.2272,-0.0032107,-0.00958815,0.00027303,0 STARLINK-6040,1 56809U 23078AU  23158.50001157 -.00958815  27303-3 -32107-2 0  9997,2 56809  70.0025  33.3889 0019174 164.8253 193.2272 15.89605970  1433,6681.524,90.588,316.2,290.578,0.0
56809.0,STARLINK-6040,PAYLOAD,2023-06-07 20:00:01,15.88956553,0.0015985,70.0024,32.4247,166.2244,298.398,-0.003429,-0.00985953,0.0002857,0 STARLINK-6040,1 56809U 23078AU  23158.83334491 -.00985953  28570-3 -34290-2 0  9998,2 56809  70.0024  32.4247 0015985 166.2244 298.3980 15.88956553  1485,6683.344,90.626,315.892,294.526,0.0
56809.0,STARLINK-6040,PAYLOAD,2023-06-07 22:00:00,15.88772108,0.0015286,70.0022,32.1837,166.4913,54.6544,-0.0033015,-0.00939982,0.00026105,0 STARLINK-6040,1 56809U 23078AU  23158.91667824 -.00939982  26105-3 -33015-2 0  9993,2 56809  70.0022  32.1837 0015286 166.4913  54.6544 15.88772108  1306,6683.861,90.636,315.943,295.509,0.0
56809.0,STARLINK-6040,PAYLOAD,2023-06-08 04:00:00,15.88323038,0.0012922,70.0016,31.461,168.7504,41.6394,-0.003651,-0.01013003,0.00029854,0 STARLINK-6040,1 56809U 23078AU  23159.16667824 -.01013003  29854-3 -36510-2 0  9996,2 56809  70.0016  31.4610 0012922 168.7504  41.6394 15.88323038  1533,6685.121,90.662,315.625,298.348,0.0
56809.0,STARLINK-6040,PAYLOAD,2023-06-08 12:00:00,15.87650911,0.0010458,70.0018,30.4985,174.739,140.6504,-0.0035982,-0.00963663,0.00027044,0 STARLINK-6040,1 56809U 23078AU  23159.50001157 -.00963663  27044-3 -35982-2 0  9991,2 56809  70.0018  30.4985 0010458 174.7390 140.6504 15.87650911  1592,6687.008,90.7,315.866,301.88,0.0
56809.0,STARLINK-6040,PAYLOAD,2023-06-08 12:11:17,15.8784446,0.0013994,70.002,30.4762,169.7755,190.3738,-0.0015801,-0.00430578,6.1229e-05,0 STARLINK-6040,1 56809U 23078AU  23159.50784390 -.00430578  61229-4 -15801-2 0  9994,2 56809  70.0020  30.4762 0013994 169.7755 190.3738 15.87844460  1332,6686.464,90.689,317.686,298.972,0.0
56809.0,STARLINK-6040,PAYLOAD,2023-06-08 20:00:01,15.87012261,0.0007453,70.0021,29.5367,182.9191,236.7546,-0.003907,-0.00917613,0.0,0 STARLINK-6040,1 56809U 23078AU  23159.83335648 -.00917613  00000-0 -39070-2 0  9998,2 56809  70.0021  29.5367 0007453 182.9191 236.7546 15.87012261  1649,6688.802,90.737,315.652,305.682,0.0
56809.0,STARLINK-6040,PAYLOAD,2023-06-08 22:00:00,15.86809005,0.0006726,70.0019,29.2966,184.6793,350.8712,-0.0036081,-0.00845184,0.0,0 STARLINK-6040,1 56809U 23078AU  23159.91667824 -.00845184  00000-0 -36081-2 0  9993,2 56809  70.0019  29.2966 0006726 184.6793 350.8712 15.86809005  1302,6689.373,90.748,315.737,306.739,0.0
56809.0,STARLINK-6040,PAYLOAD,2023-06-09 04:00:00,15.86371394,0.000487,70.0018,28.576,198.4686,324.5632,-0.004079,-0.00925321,0.0,0 STARLINK-6040,1 56809U 23078AU  23160.16667824 -.00925321  00000-0 -40790-2 0  9996,2 56809  70.0018  28.5760 0004870 198.4686 324.5632 15.86371394  1693,6690.603,90.773,315.726,309.21,0.0
56809.0,STARLINK-6040,PAYLOAD,2023-06-09 12:00:02,15.8569861,0.0003877,70.0022,27.6162,227.0135,38.7368,-0.0040038,-0.0088255,0.0,0 STARLINK-6040,1 56809U 23078AU  23160.50002315 -.00882550  00000-0 -40038-2 0  9993,2 56809  70.0022  27.6162 0003877 227.0135  38.7368 15.85698610  1757,6692.495,90.812,316.955,311.766,0.0
56809.0,STARLINK-6040,PAYLOAD,2023-06-09 13:54:41,15.85822203,0.0005705,70.0025,27.3872,191.176,168.9318,-0.00034892,-0.00084844,0.0,0 STARLINK-6040,1 56809U 23078AU  23160.57964559 -.00084844  00000-0 -34892-3 0  9999,2 56809  70.0025  27.3872 0005705 191.1760 168.9318 15.85822203  1503,6692.148,90.805,317.83,310.195,0.0
56809.0,STARLINK-6040,PAYLOAD,2023-06-09 20:00:01,15.85043287,0.0003479,70.0028,26.6574,260.0806,107.4776,-0.0041803,-0.00891493,0.0,0 STARLINK-6040,1 56809U 23078AU  23160.83334491 -.00891493  00000-0 -41803-2 0  9999,2 56809  70.0028  26.6574 0003479 260.0806 107.4776 15.85043287  1806,6694.34,90.849,318.534,313.876,0.0
56809.0,STARLINK-6040,PAYLOAD,2023-06-09 22:00:00,15.84879781,0.0003296,70.0027,26.418,266.4317,216.4673,-0.0041543,-0.00880036,0.0,0 STARLINK-6040,1 56809U 23078AU  23160.91667824 -.00880036  00000-0 -41543-2 0  9999,2 56809  70.0027  26.4180 0003296 266.4317 216.4673 15.84879781  1307,6694.8,90.859,318.872,314.459,0.0
56809.0,STARLINK-6040,PAYLOAD,2023-06-10 04:00:01,15.84425624,0.0003384,70.0024,25.6995,272.1657,196.5326,-0.004574,-0.00941369,0.0,0 STARLINK-6040,1 56809U 23078AU  23161.16668981 -.00941369  00000-0 -45740-2 0  9992,2 56809  70.0024  25.6995 0003384 272.1657 196.5326 15.84425624  1854,6696.08,90.885,320.21,315.679,0.0
56809.0,STARLINK-6040,PAYLOAD,2023-06-10 12:00:02,15.83731191,0.0003505,70.0024,24.7427,262.9696,306.0428,-0.0042884,-0.00861697,0.0,0 STARLINK-6040,1 56809U 23078AU  23161.50002315 -.00861697  00000-0 -42884-2 0  9994,2 56809  70.0024  24.7427 0003505 262.9696 306.0428 15.83731191  1904,6698.037,90.925,322.249,317.554,0.0
56809.0,STARLINK-6040,PAYLOAD,2023-06-10 14:00:01,15.83603864,0.0003668,70.0026,24.5038,263.6017,60.286,-0.0046187,-0.00916717,0.0,0 STARLINK-6040,1 56809U 23078AU  23161.58334491 -.00916717  00000-0 -46187-2 0  9999,2 56809  70.0026  24.5038 0003668 263.6017  60.2860 15.83603864  1305,6698.396,90.932,322.718,317.804,0.0
56809.0,STARLINK-6040,PAYLOAD,2023-06-10 20:00:01,15.8309376,0.0003731,70.0024,23.7868,266.805,41.668,-0.0046927,-0.00909871,0.0,0 STARLINK-6040,1 56809U 23078AU  23161.83334491 -.00909871  00000-0 -46927-2 0  9992,2 56809  70.0024  23.7868 0003731 266.8050  41.6680 15.83093760  1961,6699.835,90.961,324.199,319.2,0.0
56809.0,STARLINK-6040,PAYLOAD,2023-06-10 22:00:00,15.82917067,0.0003721,70.0022,23.5481,270.5471,152.6847,-0.0045632,-0.00880389,0.0,0 STARLINK-6040,1 56809U 23078AU  23161.91667824 -.00880389  00000-0 -45632-2 0  9994,2 56809  70.0022  23.5481 0003721 270.5471 152.6847 15.82917067  1306,6700.333,90.971,324.691,319.705,0.0
56809.0,STARLINK-6040,PAYLOAD,2023-06-11 14:00:01,15.81650771,0.0003799,70.0021,21.6391,264.108,355.4077,-0.0051154,-0.00925157,0.0,0 STARLINK-6040,1 56809U 23078AU  23162.58334491 -.00925157  00000-0 -51154-2 0  9998,2 56809  70.0021  21.6391 0003799 264.1080 355.4077 15.81650771  1307,6703.909,91.044,328.321,323.227,0.0
56809.0,STARLINK-6040,PAYLOAD,2023-06-11 20:00:01,15.81127613,0.0003811,70.0021,20.9242,269.8411,332.5008,-0.0050453,-0.00893802,0.0,0 STARLINK-6040,1 56809U 23078AU  23162.83334491 -.00893802  00000-0 -50453-2 0  9998,2 56809  70.0021  20.9242 0003811 269.8411 332.5008 15.81127613  2113,6705.388,91.074,329.808,324.697,0.0
56809.0,STARLINK-6040,PAYLOAD,2023-06-12 12:00:00,15.79821576,0.0003595,70.0023,19.0205,269.5549,164.7817,-0.0051897,-0.00868137,0.0,0 STARLINK-6040,1 56809U 23078AU  23163.50001157 -.00868137  00000-0 -51897-2 0  9999,2 56809  70.0023  19.0205 0003595 269.5549 164.7817 15.79821576  2222,6709.083,91.15,333.36,328.536,0.0
56809.0,STARLINK-6040,PAYLOAD,2023-06-12 20:00:01,15.79162117,0.0003501,70.0027,18.0702,272.0655,257.1079,-0.0054128,-0.00877581,0.0,0 STARLINK-6040,1 56809U 23078AU  23163.83334491 -.00877581  00000-0 -54128-2 0  9998,2 56809  70.0027  18.0702 0003501 272.0655 257.1079 15.79162117  2272,6710.95,91.188,335.165,330.466,0.0
56809.0,STARLINK-6040,PAYLOAD,2023-06-12 22:00:00,15.78991678,0.0003534,70.0026,17.8327,272.3231,10.4331,-0.0053037,-0.00855486,0.0,0 STARLINK-6040,1 56809U 23078AU  23163.91667824 -.00855486  00000-0 -53037-2 0  9994,2 56809  70.0026  17.8327 0003534 272.3231  10.4331 15.78991678  1305,6711.433,91.197,335.67,330.927,0.0
56809.0,STARLINK-6040,PAYLOAD,2023-06-13 12:00:00,15.77879441,0.0003574,70.0021,16.172,267.0357,89.4284,-0.0058249,-0.00889908,0.0,0 STARLINK-6040,1 56809U 23078AU  23164.50001157 -.00889908  00000-0 -58249-2 0  9997,2 56809  70.0021  16.1720 0003574 267.0357  89.4284 15.77879441  2387,6714.587,91.262,338.852,334.052,0.0
56809.0,STARLINK-6040,PAYLOAD,2023-06-13 14:00:01,15.77748241,0.0003424,70.0023,15.935,267.8331,201.8155,-0.0062524,-0.0094348,0.0,0 STARLINK-6040,1 56809U 23078AU  23164.58334491 -.00943480  00000-0 -62524-2 0  9992,2 56809  70.0023  15.9350 0003424 267.8331 201.8155 15.77748241  1300,6714.959,91.269,339.123,334.525,0.0
56809.0,STARLINK-6040,PAYLOAD,2023-06-13 22:00:00,15.77040898,0.0003343,70.0018,14.9875,272.6108,289.3433,-0.0058453,-0.00862782,0.0,0 STARLINK-6040,1 56809U 23078AU  23164.91667824 -.00862782  00000-0 -58453-2 0  9999,2 56809  70.0018  14.9875 0003343 272.6108 289.3433 15.77040898  1304,6716.967,91.31,341.077,336.586,0.0
56809.0,STARLINK-6040,PAYLOAD,2023-06-14 04:00:00,15.76603113,0.0003302,70.0014,14.2773,273.1917,267.447,-0.0066473,-0.00951998,0.0,0 STARLINK-6040,1 56809U 23078AU  23165.16667824 -.00951998  00000-0 -66473-2 0  9996,2 56809  70.0014  14.2773 0003302 273.1917 267.4470 15.76603113  2481,6718.21,91.336,342.294,337.857,0.0
